ONEWEB-0620             
1 55161U 23004X   25017.82983007  .00000219  00000+0  58081-3 0  9995
2 55161  87.8908 123.8150 0002122 100.6823 259.4544 13.11413489 98282
ONEWEB-0621             
1 55162U 23004Y   25017.78064213 -.00000518  00000+0 -14966-2 0  9997
2 55162  87.8905 123.7868 0001490  99.6731 260.4565 13.11415154 98250
ONEWEB-0622             
1 55163U 23004Z   25017.78574334 -.00000407  00000+0 -11836-2 0  9998
2 55163  87.8908 123.8059 0002161  86.2766 273.8609 13.11417779 98244
ONEWEB-0623             
1 55164U 23004AA  25017.79124668 -.00000014  00000+0 -69834-4 0  9998
2 55164  87.9100 108.5784 0001914  79.5966 280.5381 13.17648596 99711
ONEWEB-0624             
1 55165U 23004AB  25017.75531355 -.00000142  00000+0 -43072-3 0  9997
2 55165  87.8873  93.2901 0001759  98.2321 261.9007 13.12442322100444
ONEWEB-0625             
1 55166U 23004AC  25017.78111377  .00000053  00000+0  10234-3 0  9992
2 55166  87.9097 108.5788 0001649 109.4528 250.6782 13.17647063 99704
ONEWEB-0626             
1 55167U 23004AD  25017.77098028 -.00000094  00000+0 -27499-3 0  9997
2 55167  87.9093 108.5797 0002363 114.9097 245.2280 13.17651090 99705
ONEWEB-0627             
1 55168U 23004AE  25017.75918555 -.00000006  00000+0 -48125-4 0  9995
2 55168  87.9095 108.5841 0002009  87.3769 272.7592 13.17647116 99709
